#dP2020 10 15  0  0  0.00000000      97 __u+U IGS14 FIT  IAC
## 2127 345600.00000000   900.00000000 59137 0.0000000000000
+  123   C01C02C03C04C05C06C07C08C09C10C11C12C13C14C16C19C20
+        C21C22C23C24C25C26C27C28C29C30C32C33C34C35C36C37C38
+        C39C40C43C44C45C46C60E01E02E03E04E05E07E08E09E11E12
+        E13E14E15E18E19E21E24E25E26E27E30E31E33E36G01G02G03
+        G04G05G06G07G08G09G10G11G12G13G15G16G17G18G19G20G21
+        G22G23G24G25G26G27G28G29G30G31G32J01J02J03J07R01R02
+        R03R04R05R07R08R09R11R12R13R14R15R16R17R18R19R20R21
+        R22R23R24R26  0  0  0  0  0  0  0  0  0  0  0  0  0
++        13 13 13 13 13  8  8  8  8  8  7  8  7  7  8  7  7
++         7  7  7  7  7  7  7  7  7  7  7  7  8  7  8  7 12
++        11  9  8  9  9  8 16  4  4  4  4  4  4  4  4  4  4
++         4  4  4  4  4  4  4  4  4  4  4  4  4  4  3  3  3
++         3  3  3  3  3  3  3  3  3  3  3  3  3  3  3  3  3
++         3  3  3  3  3  3  3  3  6  3  3  9 10  9 13  6  5
++         5  5  5  5  5  5  5  5  6  5  5  6  5  5  6  6  5
++         6  5  5  8  0  0  0  0  0  0  0  0  0  0  0  0  0
%c M  cc GPS ccc cccc cccc cccc cccc ccccc ccccc ccccc ccccc
%c cc cc ccc ccc cccc cccc cccc cccc ccccc ccccc ccccc ccccc
%f  1.2500000  1.025000000  0.00000000000  0.000000000000000
%f  0.0000000  0.000000000  0.00000000000  0.000000000000000
%i    0    0    0    0      0      0      0      0         0
%i    0    0    0    0      0      0      0      0         0
/* INFORMATION & ANALYSIS CENTER (IAC)            FINAL DATA
/* S/V CLOCKS ARE ALIGNED TO GNSS TIME                      
/* G:C1WC2W R:C1PC2P E:C1XC5X C:C2IC6I J:C1CC2S             
/* PCV:IGS14_2118 OL/AL:FES2004  NONE     YN ORB:CoN CLK:CoN
*  2020 10 15 10 45  0.00000000
PC01 -34382.124892  24432.275790    268.327682   -667.948788
PC02   4504.210817  41914.545217    -73.666173    809.606478
PC03 -14741.628896  39516.396619   -941.682255    801.905259
PC04 -39660.628155  14360.901697   -424.875612   -176.566721
PC05  21869.582247  36041.898167    128.954262   -110.489492
PC06 -21169.163217  22347.107026  29033.216783     49.438223
PC07 -19016.825875  37645.548506   5015.737468   -101.342931
PC08  -5318.421783  25884.261682 -32655.180463   -608.613673
PC09  -4236.019494  24534.109525  34253.978631    874.260459
PC10  -8474.683373  40668.290915  -8255.062918   -163.655232
PC11  26989.506547   6067.147678  -3358.422416   -686.140131
PC12  14891.780841  14339.229933 -18691.010344    557.307631
PC13   6196.923008  34119.980531 -23691.171355    696.589932
PC14  17676.601515   1440.860435  21549.269667    -24.540823
PC16 -18036.966563  22780.858038  30562.600701   -596.234499
PC19 -20695.058111   8439.311835 -16704.439280    582.541218
PC20 -12620.752291  -9686.375973 -22920.340511   -861.230402
PC21  -3411.092599  22832.255466  15699.985567   -697.431167
PC22 -17038.003321  22111.375212   -640.263265   -774.276968
PC23   8218.548140 -17525.625368 -20089.001453   -893.642452
PC24  16309.665111  20184.369701 -10225.597067   -721.013982
PC25  17386.503641    892.907602 -21804.407153   -791.914388
PC26   6853.395808  26294.433611   6273.470463    867.662746
PC27  -4321.735123 -16151.389716  22325.781569    416.019656
PC28  16352.347309 -11357.533200  19552.300984   -158.019597
PC29 -27377.921102    973.379793  -5334.324299    297.640904
PC30 -22541.387097 -10847.948790  12351.688788    389.954885
PC32   3250.092480 -22856.185764 -15666.862032   -904.075617
PC33  20648.398831  -8413.150875  16767.806787   -812.279733
PC34  22919.609524  10652.014804 -11854.383770   -831.665513
PC35 -16173.534414  11860.968509 -19393.398905   -606.753973
PC36 -17446.557280  -1606.499793  21752.496939   -876.549745
PC37  -5758.420828 -26417.669860  -6918.715237   -897.260208
PC38  -3193.066244  29883.027182 -29523.097352    106.279622
PC39 -13682.804827  24284.801795  31605.839401     23.852750
PC40 -14951.874473  38868.063934  -7076.001890     91.088584
PC43  27466.419199   -581.614875   4944.028752   -417.518975
PC44   4645.422074  16139.988800 -22293.940604   -167.824871
PC45  -8074.323654  17515.269684  20174.021106    256.605538
PC46 -16562.907039 -19688.339190  10866.668597    591.575972
PC60   7271.018685  41492.505036  -1835.983981 999999.999999
PE01  -1780.324949  29544.317685    302.812374   -961.824741
PE02   1691.270469 -29558.260058   -170.266791    169.066726
PE03   6355.046063 -19924.192168 -20949.053596   -353.972123
PE04  14180.568157  11350.496766  23370.533001   -627.526519
PE05  23473.037965 -16933.462454  -6195.328412   -337.702492
PE07 -26735.749718   4083.399844 -12044.543059   -448.991991
PE08 -14450.051612 -10954.209737 -23403.421588   6106.246932
PE09  26693.699090  -4392.040519  11991.612859   5898.105986
PE11  26070.291218   7163.081420  12047.418164   6246.642260
PE12  21376.146134  19163.344662  -7221.758212   5555.639027
PE13 -26133.460064  -7327.494609 -11815.789934    404.555367
PE14   2047.985821 -15114.165302  17687.356496  -1191.005740
PE15 -21552.848282 -19014.352220   7102.976802    848.344842
PE18  -2135.746209  21014.787871 -24825.479618  -1300.984585
PE19  -8771.088557  20114.545010  19864.303806    103.562829
PE21 -12633.999932  20455.746519  17274.126202   -626.743686
PE24  16482.866360   1395.213968 -24547.577715   -530.398089
PE25  12684.689386 -20333.235552 -17359.320781   -518.298782
PE26 -15002.192371   9134.361185 -23825.148270   2610.717986
PE27 -16473.683858   -794.996337  24591.733336    113.243749
PE30 -10237.012231 -21980.136809  16986.770106   3503.982859
PE31  10601.305130  21456.897038 -17402.044760   -474.878118
PE33   4304.746693  19513.310469 -21830.668052   -462.786378
PE36  15348.533875  -8664.836316  23783.062076    494.212124
PG01  21080.670363  13102.477541   9661.988253     32.664679
PG02 -12621.302456 -21289.345092  10319.862831   -529.852083
PG03  14540.414684   3901.704104  21798.741735   -326.810984
PG04  24699.786259   1811.172211   9655.077804   -145.468561
PG05  -4264.284344 -22335.299176 -13725.785136    -23.456109
PG06   1153.194040 -17867.680090  19659.472838   -333.285812
PG07  17259.094182  -2196.127940 -19873.701692   -393.844380
PG08  18426.434095   7746.305720 -17612.280087    -51.513344
PG09  25328.199810  -7835.532708  -1793.505193   -300.400321
PG10 -11658.915086  22636.468897  -6984.644508   -480.204414
PG11  22963.278187  12127.893718  -5040.322200   -136.374389
PG12 -13080.448709  -7074.279398  21779.760364     53.801506
PG13  -9564.315494 -13466.696919 -20954.010337     54.944261
PG15 -19917.393622  -6309.500121 -16950.865894   -196.817864
PG16   2633.263049  21464.792039 -15322.692938   -222.699790
PG17  14253.165705 -14423.641987  17565.093639    340.107586
PG18 -16067.315503   3742.994393 -20837.289552    307.256708
PG19   7751.469326 -14752.037752  20376.105753    -91.523031
PG20 -14827.438748  13866.088731 -17071.439066    526.391232
PG21  16950.759854  19978.572230  -4643.179704     57.959400
PG22  12671.782623  12434.207786  19992.880052   -743.035408
PG23 -15297.294885  15225.077824 -15497.460486     85.927877
PG24 -21814.969200 -14233.443398   5929.086017    -19.816961
PG25 -16208.568728   6654.711551  19642.405150      5.707004
PG26  -4311.778897  25896.790458  -3080.273670    295.605212
PG27   6860.803775  13569.603753 -21952.191241   -418.902659
PG28  12523.992867 -22948.961325  -4558.086826    667.435270
PG29 -26287.628738   3913.507109    692.454658   -215.953512
PG30  10120.687969 -12110.511502 -21296.789889   -320.301489
PG31    -12.551917  19113.760036  18186.577245    -75.087183
PG32 -13430.705041  15542.344665  16836.853476    357.793081
PJ01 -28477.654855  31070.836178   2512.132489   -340.410397
PJ02 -26291.660256  25677.722360  25486.811312     -5.176132
PJ03 -32673.496742  16444.666084 -16358.116066     -1.999965
PJ07 -25410.852419  33649.748490     31.771744      0.083541
PR01  15957.807416 -19043.777219  -5753.994887     69.088077
PR02   -170.367974 -13604.792416 -21556.850856    450.028835
PR03 -14391.422428   -386.247763 -21008.820645     23.817315
PR04 -20181.083992  12998.834659  -8597.809585     58.056252
PR05 -14726.287200  18921.992357   8672.826509     59.317522
PR07  14832.414974   -147.018618  20793.184738    -40.797441
PR08  20244.752056 -12919.469190   8671.745549    -55.181935
PR09   7319.067416  24234.704759  -3394.889422      2.392904
PR11   9665.113996  -6912.250724 -22544.233568    -41.188128
PR12   1858.438691 -21403.560955 -13733.997131    171.991972
PR13  -7274.018263 -24243.685271   3145.714719    -45.247910
PR14 -12031.774882 -12689.827645  18582.822186     56.615251
PR15  -9821.289697   5931.466126  22808.929460    106.994797
PR16  -1155.109811  21775.252846  13115.540003     -7.261295
PR17 -23579.710842  -9177.657831   3440.088781    366.283148
PR18 -21813.869816   -868.547536 -13143.075543     52.793701
PR19  -9267.603015   7390.643754 -22588.062250   -115.498641
PR20  11326.666167  12886.331502 -18881.870125   -424.197940
PR21  23805.313296   8797.333468  -2360.808557   -159.184233
PR22  21273.217413    371.360293  14121.481733    -77.664005
PR23   1392.826300 -10464.701973  23214.305386    338.500223
PR24 -11993.240625 -13155.792255  18296.997214     16.934783
PR26   6002.652696  12129.356287 -21601.460210   -363.687969
EOF
